STARLINK-3304           
1 50161U 21125F   25361.83500892  .00000520  00000+0  50762-4 0  9996
2 50161  53.2157 221.6908 0001534  87.9701 272.1466 15.08839625225601
STARLINK-3306           
1 50163U 21125H   25361.81845116  .00000869  00000+0  72657-4 0  9990
2 50163  53.2159 201.7511 0001643  94.0083 266.1097 15.08844687225884
STARLINK-3298           
1 50165U 21125K   25361.88652970  .00000430  00000+0  45087-4 0  9994
2 50165  53.2172 221.4594 0001491  91.6180 268.4983 15.08840665225660
STARLINK-3305           
1 50166U 21125L   25361.83687682  .00001216  00000+0  94449-4 0  9997
2 50166  53.2157 211.6109 0001474  88.3986 271.7175 15.08841016225745
STARLINK-3271           
1 50167U 21125M   25361.88012848  .00000515  00000+0  50478-4 0  9994
2 50167  53.2159 221.4992 0001716  92.6987 267.4201 15.08843124225615
STARLINK-3296           
1 50168U 21125N   25361.83336806  .01178266  69334-3  26052-2 0  9991
2 50168  53.2134 198.1007 0000463 130.9486 242.6973 15.97549687  5762
STARLINK-3301           
1 50169U 21125P   25361.81018763 -.00001149  00000+0 -54160-4 0  9999
2 50169  53.2151 211.8015 0001562  85.3175 274.7995 15.08825741225756
STARLINK-3245           
1 50170U 21125Q   25361.83225171  .00000826  00000+0  70015-4 0  9992
2 50170  53.2160 211.6994 0001526  88.3685 271.7482 15.08838231225746
STARLINK-3286           
1 50171U 21125R   25361.84697255  .00001071  00000+0  85368-4 0  9990
2 50171  53.2165 211.6366 0001549  91.2266 268.8904 15.08839816225755
STARLINK-3287           
1 50172U 21125S   25361.82489243  .00000841  00000+0  70913-4 0  9999
2 50172  53.2160 211.7329 0001124  90.8639 269.2482 15.08837674225788
STARLINK-3289           
1 50173U 21125T   25361.79269698  .00001568  00000+0  11657-3 0  9992
2 50173  53.2166 201.9472 0001494  90.4525 269.6638 15.08840695225891
STARLINK-3292           
1 50174U 21125U   25361.79142185  .00001392  00000+0  10552-3 0  9992
2 50174  53.2162 207.4956 0001358  86.5779 273.5368 15.08837148225851
STARLINK-3291           
1 50175U 21125V   25361.83593273  .00000509  00000+0  50095-4 0  9992
2 50175  53.2156 211.6849 0001457  98.6304 261.4853 15.08837624225754
STARLINK-3293           
1 50176U 21125W   25361.81753848  .00001355  00000+0  10326-3 0  9999
2 50176  53.2164 211.7678 0001117  68.4710 291.6401 15.08824078225791
STARLINK-3282           
1 50177U 21125X   25361.82857240 -.00000104  00000+0  11578-4 0  9995
2 50177  53.2164 211.7172 0001685  89.3483 270.7702 15.08835647225752
STARLINK-3284           
1 50178U 21125Y   25361.83336806  .00196920  00000+0  80906-3 0  9998
2 50178  53.2143 184.0783 0000863 259.7098 344.9637 15.84928603  5983
STARLINK-3283           
1 50179U 21125Z   25361.88746316  .00000705  00000+0  62388-4 0  9995
2 50179  53.2157 211.4554 0001532 110.7653 249.3503 15.08835831225763
STARLINK-3265           
1 50180U 21125AA  25361.74120749 -.00000349  00000+0 -38171-5 0  9998
2 50180  53.2154 212.1206 0001461  90.2544 269.8615 15.08836658225787
STARLINK-3285           
1 50181U 21125AB  25361.86632863  .00000001  00000+0  18138-4 0  9990
2 50181  53.2157 211.5577 0001390  91.7640 268.3511 15.08837554225762
STARLINK-3277           
1 50182U 21125AC  25361.84327271  .00000647  00000+0  58720-4 0  9990
2 50182  53.2154 211.4968 0001224  89.3565 270.7568 15.08838466225793
STARLINK-3281           
1 50183U 21125AD  25361.79544999 -.00000234  00000+0  33835-5 0  9997
2 50183  53.2167 211.8676 0001498  94.6555 265.4609 15.08838739225799
STARLINK-3279           
1 50185U 21125AF  25361.87273433 -.00000040  00000+0  15585-4 0  9996
2 50185  53.2154 211.5585 0001388  89.2788 270.8363 15.08838633225766
STARLINK-3274           
1 50186U 21125AG  25361.81661066  .00000690  00000+0  61419-4 0  9991
2 50186  53.2170 221.7750 0001432  89.4627 270.6529 15.08842756225602
STARLINK-3272           
1 50187U 21125AH  25361.84420988 -.00000266  00000+0  13524-5 0  9996
2 50187  53.2161 201.6492 0001529  90.5271 269.5897 15.08836388225876
STARLINK-3276           
1 50189U 21125AK  25361.85124687  .00008085  00000+0  52371-3 0  9993
2 50189  53.2142 211.6242 0001536  88.8192 271.2977 15.08966815225790
STARLINK-3268           
1 50190U 21125AL  25361.83316877  .00000547  00000+0  52461-4 0  9993
2 50190  53.2158 201.6956 0001382  93.5270 266.5881 15.08838062225882
STARLINK-3273           
1 50191U 21125AM  25361.64365234  .00000715  00000+0  62966-4 0  9992
2 50191  53.2158 222.5478 0000940  87.0573 273.0527 15.08840980225575
STARLINK-3259           
1 50192U 21125AN  25361.82950603  .00001573  00000+0  11692-3 0  9995
2 50192  53.2159 201.7153 0001542  76.5112 283.6051 15.08824839225885
STARLINK-3261           
1 50193U 21125AP  25361.77428801 -.00000096  00000+0  12076-4 0  9998
2 50193  53.2168 201.9616 0001493  91.6957 268.4206 15.08839394225922
STARLINK-3269           
1 50194U 21125AQ  25361.83336806  .00279903  00000+0  28191-2 0  9996
2 50194  53.2141 130.5660 0001175  81.6163  88.7146 15.63989913  5763
STARLINK-3266           
1 50195U 21125AR  25361.83684991  .00001570  00000+0  11669-3 0  9994
2 50195  53.2158 201.6815 0001619  89.9708 270.1470 15.08842275225885
STARLINK-3267           
1 50197U 21125AT  25361.82213571  .00001793  00000+0  13073-3 0  9995
2 50197  53.2150 201.7464 0001595  84.3776 275.7398 15.08839314225933
STARLINK-3264           
1 50198U 21125AU  25361.80741073  .00001184  00000+0  92487-4 0  9998
2 50198  53.2160 201.8110 0001499  95.2065 264.9098 15.08839063225881
STARLINK-3270           
1 50199U 21125AV  25361.78900801  .00000822  00000+0  69719-4 0  9992
2 50199  53.2162 201.8962 0001517  88.8957 271.2209 15.08839255225875
STARLINK-3235           
1 50200U 21125AW  25361.81108990  .00000422  00000+0  44580-4 0  9993
2 50200  53.2166 201.7558 0001597  87.8231 272.2944 15.08838676225899
STARLINK-3255           
1 50201U 21125AX  25361.78307134  .00070214  00000+0  68423-3 0  9998
2 50201  53.2034 135.8708 0001175 187.0044 173.0956 15.65621526226816
STARLINK-3256           
1 50202U 21125AY  25361.85157421  .00002488  00000+0  17434-3 0  9993
2 50202  53.2156 201.6159 0001302  95.4398 264.6742 15.08840552225885
STARLINK-3257           
1 50203U 21125AZ  25361.81941832  .00000546  00000+0  52380-4 0  9990
2 50203  53.2156 201.8442 0001809  91.5876 268.5323 15.08840427225949
STARLINK-3254           
1 50204U 21125BA  25361.79365044  .00000169  00000+0  28698-4 0  9999
2 50204  53.2168 201.8852 0001583  92.3622 267.7551 15.08836024225936
STARLINK-3260           
1 50205U 21125BB  25361.73385065  .00001594  00000+0  11824-3 0  9994
2 50205  53.2168 172.1430 0001472  85.2161 274.8999 15.08839620226295
STARLINK-3258           
1 50206U 21125BC  25361.85253220  .00004303  00000+0  28844-3 0  9996
2 50206  53.2155 201.5060 0001398  82.1073 278.0078 15.08823312223813
STARLINK-3262           
1 50207U 21125BD  25361.86628676  .00003899  00000+0  26292-3 0  9993
2 50207  53.2149 201.5490 0001959  79.2298 280.8914 15.08846360223888
TURKSAT 5B              
1 50212U 21126A   25361.55004830  .00000169  00000+0  00000+0 0  9998
2 50212   0.0687 339.7297 0004801 321.5592  35.0094  1.00270998 14577
INMARSAT 6-F1           
1 50319U 21128A   25361.13035229 -.00000149  00000+0  00000+0 0  9997
2 50319   0.0112 313.4331 0000112 178.4002  94.7232  1.00269586 14535
SHIYAN-12 01 (SY-12 01) 
1 50321U 21129A   25361.73733881 -.00000042  00000+0  00000+0 0  9998
2 50321   3.2307  82.3160 0004011 204.6245 236.6340  1.00424491 14786
SHIYAN-12 02 (SY-12 02) 
1 50322U 21129B   25361.69023110  .00000019  00000+0  00000+0 0  9994
2 50322   3.2306  82.3247 0004083 193.6805 139.4545  1.00067313 14772
ZY-1 02E                
1 50465U 21131A   25361.87732306  .00000131  00000+0  60781-4 0  9991
2 50465  98.4611  77.4868 0000254  87.4943 272.6272 14.35391898209849
XW-3 (CAS-9)            
1 50466U 21131B   25361.85539957  .00000735  00000+0  24193-3 0  9993
2 50466  98.5039  90.2001 0003142 246.8494 113.2364 14.41132775210431
ONEWEB-0389             
1 50469U 21132A   25361.58297551  .00000028  00000+0  39481-4 0  9990
2 50469  87.9098  39.9890 0002038 105.9508 254.1849 13.17649795195488
ONEWEB-0390             
1 50470U 21132B   25361.81245794  .00000113  00000+0  25806-3 0  9990
2 50470  87.9095  39.9449 0001509 100.8993 259.2308 13.17651253195513
ONEWEB-0391             
1 50471U 21132C   25361.81416648  .00000126  00000+0  29064-3 0  9993
2 50471  87.9092  39.9539 0002050 122.7584 237.3745 13.17649519195516
ONEWEB-0392             
1 50472U 21132D   25361.84452666  .00000026  00000+0  32507-4 0  9993
2 50472  87.9102  39.9010 0001983 108.3753 251.7594 13.17649987195550
ONEWEB-0393             
1 50473U 21132E   25361.81766499  .00000059  00000+0  11799-3 0  9998
2 50473  87.9104  39.9293 0001884 103.0258 257.1084 13.17650252195548
ONEWEB-0394             
1 50474U 21132F   25361.76869873  .00000032  00000+0  48770-4 0  9994
2 50474  87.9175   9.4791 0001904  94.5523 265.5827 13.18686986199001
ONEWEB-0395             
1 50475U 21132G   25361.65189472 -.00000488  00000+0 -14135-2 0  9996
2 50475  87.8842  55.2318 0001636 107.8426 252.2880 13.11416799193235
ONEWEB-0396             
1 50476U 21132H   25361.45860517  .00000070  00000+0  14507-3 0  9990
2 50476  87.9175   9.5529 0001862  93.2808 266.8538 13.18686927199006
ONEWEB-0397             
1 50477U 21132J   25361.77693661  .00000065  00000+0  13244-3 0  9991
2 50477  87.9174   9.4901 0002004  90.6301 269.5061 13.18687212199028
ONEWEB-0398             
1 50478U 21132K   25361.61970078  .00000252  00000+0  67659-3 0  9992
2 50478  87.8847  55.2123 0001451 109.9283 250.2002 13.11414800193129
ONEWEB-0399             
1 50479U 21132L   25361.68243035  .00000521  00000+0  14347-2 0  9990
2 50479  87.8843  55.2129 0002217 108.8979 251.2389 13.11414926193121
